CCSDS_OMM_VERS = 2.0
CREATION_DATE  = 
ORIGINATOR     = 

OBJECT_NAME    = ATLAS CENTAUR R/B
OBJECT_ID      = 1972-065B
CENTER_NAME    = EARTH
REF_FRAME      = TEME
TIME_SYSTEM    = UTC
MEAN_ELEMENT_THEORY = SGP/SGP4

EPOCH          = 2026-03-18T19:33:29.942496
MEAN_MOTION    = 14.77712248
ECCENTRICITY   = .0032876
INCLINATION    = 35.0007
RA_OF_ASC_NODE = 252.2751
ARG_OF_PERICENTER = 86.6997
MEAN_ANOMALY   = 273.7464

EPHEMERIS_TYPE = 0
CLASSIFICATION_TYPE = U
NORAD_CAT_ID   = 6155
ELEMENT_SET_NO = 999
REV_AT_EPOCH   = 84261
BSTAR          = .16005E-3
MEAN_MOTION_DOT = .1151E-4
MEAN_MOTION_DDOT = 0

CCSDS_OMM_VERS = 2.0
CREATION_DATE  = 
ORIGINATOR     = 

OBJECT_NAME    = SL-8 R/B
OBJECT_ID      = 1975-112B
CENTER_NAME    = EARTH
REF_FRAME      = TEME
TIME_SYSTEM    = UTC
MEAN_ELEMENT_THEORY = SGP/SGP4

EPOCH          = 2026-03-18T21:26:44.313216
MEAN_MOTION    = 14.38209068
ECCENTRICITY   = .0014437
INCLINATION    = 74.0637
RA_OF_ASC_NODE = 1.9825
ARG_OF_PERICENTER = 91.3614
MEAN_ANOMALY   = 268.9194

EPHEMERIS_TYPE = 0
CLASSIFICATION_TYPE = U
NORAD_CAT_ID   = 8459
ELEMENT_SET_NO = 999
REV_AT_EPOCH   = 63319
BSTAR          = .78957E-4
MEAN_MOTION_DOT = .214E-5
MEAN_MOTION_DDOT = 0

CCSDS_OMM_VERS = 2.0
CREATION_DATE  = 
ORIGINATOR     = 

OBJECT_NAME    = SL-3 R/B
OBJECT_ID      = 1977-057B
CENTER_NAME    = EARTH
REF_FRAME      = TEME
TIME_SYSTEM    = UTC
MEAN_ELEMENT_THEORY = SGP/SGP4

EPOCH          = 2026-03-18T20:20:16.035648
MEAN_MOTION    = 15.45751571
ECCENTRICITY   = .0006228
INCLINATION    = 97.5777
RA_OF_ASC_NODE = 250.1740
ARG_OF_PERICENTER = 245.9129
MEAN_ANOMALY   = 114.1469

EPHEMERIS_TYPE = 0
CLASSIFICATION_TYPE = U
NORAD_CAT_ID   = 10114
ELEMENT_SET_NO = 999
REV_AT_EPOCH   = 66974
BSTAR          = .23671E-3
MEAN_MOTION_DOT = .11364E-3
MEAN_MOTION_DDOT = 0

CCSDS_OMM_VERS = 2.0
CREATION_DATE  = 
ORIGINATOR     = 

OBJECT_NAME    = SEASAT 1
OBJECT_ID      = 1978-064A
CENTER_NAME    = EARTH
REF_FRAME      = TEME
TIME_SYSTEM    = UTC
MEAN_ELEMENT_THEORY = SGP/SGP4

EPOCH          = 2026-03-18T21:41:03.418656
MEAN_MOTION    = 14.46167683
ECCENTRICITY   = .0002457
INCLINATION    = 108.0090
RA_OF_ASC_NODE = 144.8333
ARG_OF_PERICENTER = 281.7151
MEAN_ANOMALY   = 78.3719

EPHEMERIS_TYPE = 0
CLASSIFICATION_TYPE = U
NORAD_CAT_ID   = 10967
ELEMENT_SET_NO = 999
REV_AT_EPOCH   = 50784
BSTAR          = .9605E-4
MEAN_MOTION_DOT = .206E-5
MEAN_MOTION_DDOT = 0

CCSDS_OMM_VERS = 2.0
CREATION_DATE  = 
ORIGINATOR     = 

OBJECT_NAME    = SL-14 R/B
OBJECT_ID      = 1979-011B
CENTER_NAME    = EARTH
REF_FRAME      = TEME
TIME_SYSTEM    = UTC
MEAN_ELEMENT_THEORY = SGP/SGP4

EPOCH          = 2026-03-18T10:24:29.712672
MEAN_MOTION    = 14.91919126
ECCENTRICITY   = .00168722
INCLINATION    = 82.5203
RA_OF_ASC_NODE = 88.2710
ARG_OF_PERICENTER = 33.3013
MEAN_ANOMALY   = 326.9265

EPHEMERIS_TYPE = 0
CLASSIFICATION_TYPE = U
NORAD_CAT_ID   = 11267
ELEMENT_SET_NO = 999
REV_AT_EPOCH   = 53008
BSTAR          = .54763612E-4
MEAN_MOTION_DOT = .581E-5
MEAN_MOTION_DDOT = 0

CCSDS_OMM_VERS = 2.0
CREATION_DATE  = 
ORIGINATOR     = 

OBJECT_NAME    = SL-8 R/B
OBJECT_ID      = 1979-089B
CENTER_NAME    = EARTH
REF_FRAME      = TEME
TIME_SYSTEM    = UTC
MEAN_ELEMENT_THEORY = SGP/SGP4

EPOCH          = 2026-03-18T16:37:42.325536
MEAN_MOTION    = 14.42356586
ECCENTRICITY   = .0017043
INCLINATION    = 74.0669
RA_OF_ASC_NODE = 74.3756
ARG_OF_PERICENTER = 246.0486
MEAN_ANOMALY   = 113.8886

EPHEMERIS_TYPE = 0
CLASSIFICATION_TYPE = U
NORAD_CAT_ID   = 11574
ELEMENT_SET_NO = 999
REV_AT_EPOCH   = 43740
BSTAR          = .82496E-4
MEAN_MOTION_DOT = .246E-5
MEAN_MOTION_DDOT = 0

CCSDS_OMM_VERS = 2.0
CREATION_DATE  = 
ORIGINATOR     = 

OBJECT_NAME    = SL-14 R/B
OBJECT_ID      = 1980-005B
CENTER_NAME    = EARTH
REF_FRAME      = TEME
TIME_SYSTEM    = UTC
MEAN_ELEMENT_THEORY = SGP/SGP4

EPOCH          = 2026-03-18T20:31:24.096864
MEAN_MOTION    = 14.90940451
ECCENTRICITY   = .001688
INCLINATION    = 82.5128
RA_OF_ASC_NODE = 298.5412
ARG_OF_PERICENTER = 129.3621
MEAN_ANOMALY   = 230.9097

EPHEMERIS_TYPE = 0
CLASSIFICATION_TYPE = U
NORAD_CAT_ID   = 11672
ELEMENT_SET_NO = 999
REV_AT_EPOCH   = 47785
BSTAR          = .4849E-4
MEAN_MOTION_DOT = .505E-5
MEAN_MOTION_DDOT = 0

CCSDS_OMM_VERS = 2.0
CREATION_DATE  = 
ORIGINATOR     = 

OBJECT_NAME    = SL-8 R/B
OBJECT_ID      = 1981-003B
CENTER_NAME    = EARTH
REF_FRAME      = TEME
TIME_SYSTEM    = UTC
MEAN_ELEMENT_THEORY = SGP/SGP4

EPOCH          = 2026-03-18T19:23:11.210496
MEAN_MOTION    = 15.11354404
ECCENTRICITY   = .0261451
INCLINATION    = 82.9361
RA_OF_ASC_NODE = 281.5913
ARG_OF_PERICENTER = 146.8588
MEAN_ANOMALY   = 214.9338

EPHEMERIS_TYPE = 0
CLASSIFICATION_TYPE = U
NORAD_CAT_ID   = 12139
ELEMENT_SET_NO = 999
REV_AT_EPOCH   = 31605
BSTAR          = .49847E-3
MEAN_MOTION_DOT = .19637E-3
MEAN_MOTION_DDOT = 0

CCSDS_OMM_VERS = 2.0
CREATION_DATE  = 
ORIGINATOR     = 

OBJECT_NAME    = SL-3 R/B
OBJECT_ID      = 1981-046B
CENTER_NAME    = EARTH
REF_FRAME      = TEME
TIME_SYSTEM    = UTC
MEAN_ELEMENT_THEORY = SGP/SGP4

EPOCH          = 2026-03-18T19:17:18.212064
MEAN_MOTION    = 15.42216530
ECCENTRICITY   = .0018823
INCLINATION    = 81.2280
RA_OF_ASC_NODE = 278.7973
ARG_OF_PERICENTER = 350.5906
MEAN_ANOMALY   = 9.4981

EPHEMERIS_TYPE = 0
CLASSIFICATION_TYPE = U
NORAD_CAT_ID   = 12465
ELEMENT_SET_NO = 999
REV_AT_EPOCH   = 43983
BSTAR          = .20444E-3
MEAN_MOTION_DOT = .8862E-4
MEAN_MOTION_DDOT = 0

CCSDS_OMM_VERS = 2.0
CREATION_DATE  = 
ORIGINATOR     = 

OBJECT_NAME    = SL-3 R/B
OBJECT_ID      = 1981-103B
CENTER_NAME    = EARTH
REF_FRAME      = TEME
TIME_SYSTEM    = UTC
MEAN_ELEMENT_THEORY = SGP/SGP4

EPOCH          = 2026-03-18T20:21:28.992672
MEAN_MOTION    = 15.21484888
ECCENTRICITY   = .0012437
INCLINATION    = 81.1602
RA_OF_ASC_NODE = 202.6886
ARG_OF_PERICENTER = 253.8702
MEAN_ANOMALY   = 106.1161

EPHEMERIS_TYPE = 0
CLASSIFICATION_TYPE = U
NORAD_CAT_ID   = 12904
ELEMENT_SET_NO = 999
REV_AT_EPOCH   = 97462
BSTAR          = .18846E-3
MEAN_MOTION_DOT = .427E-4
MEAN_MOTION_DDOT = 0

CCSDS_OMM_VERS = 2.0
CREATION_DATE  = 
ORIGINATOR     = 

OBJECT_NAME    = SL-3 R/B
OBJECT_ID      = 1982-013B
CENTER_NAME    = EARTH
REF_FRAME      = TEME
TIME_SYSTEM    = UTC
MEAN_ELEMENT_THEORY = SGP/SGP4

EPOCH          = 2026-03-18T20:27:42.207840
MEAN_MOTION    = 15.22102884
ECCENTRICITY   = .0023138
INCLINATION    = 81.1755
RA_OF_ASC_NODE = 150.0320
ARG_OF_PERICENTER = 146.9922
MEAN_ANOMALY   = 213.2760

EPHEMERIS_TYPE = 0
CLASSIFICATION_TYPE = U
NORAD_CAT_ID   = 13068
ELEMENT_SET_NO = 999
REV_AT_EPOCH   = 40574
BSTAR          = .14511E-3
MEAN_MOTION_DOT = .3373E-4
MEAN_MOTION_DDOT = 0

CCSDS_OMM_VERS = 2.0
CREATION_DATE  = 
ORIGINATOR     = 

OBJECT_NAME    = SL-3 R/B
OBJECT_ID      = 1982-039B
CENTER_NAME    = EARTH
REF_FRAME      = TEME
TIME_SYSTEM    = UTC
MEAN_ELEMENT_THEORY = SGP/SGP4

EPOCH          = 2026-03-18T19:13:06.919392
MEAN_MOTION    = 15.10132730
ECCENTRICITY   = .0029268
INCLINATION    = 81.1579
RA_OF_ASC_NODE = 205.4571
ARG_OF_PERICENTER = 294.5834
MEAN_ANOMALY   = 65.2342

EPHEMERIS_TYPE = 0
CLASSIFICATION_TYPE = U
NORAD_CAT_ID   = 13154
ELEMENT_SET_NO = 999
REV_AT_EPOCH   = 38301
BSTAR          = .13891E-3
MEAN_MOTION_DOT = .231E-4
MEAN_MOTION_DDOT = 0

