ATLAS CENTAUR R/B       
1 06155U 72065B   26077.81492989  .00001151  00000+0  16005-3 0  9991
2 06155  35.0007 252.2751 0032876  86.6997 273.7464 14.77712248842616
SL-8 R/B                
1 08459U 75112B   26077.89356844  .00000214  00000+0  78957-4 0  9997
2 08459  74.0637   1.9825 0014437  91.3614 268.9194 14.38209068633195
SL-3 R/B                
1 10114U 77057B   26077.84740782  .00011364  00000+0  23671-3 0  9991
2 10114  97.5777 250.1740 0006228 245.9129 114.1469 15.45751571669749
SEASAT 1                
1 10967U 78064A   26077.90351179  .00000206  00000+0  96050-4 0  9996
2 10967 108.0090 144.8333 0002457 281.7151  78.3719 14.46167683507847
SL-14 R/B               
1 11267U 79011B   26077.43367723  .00000581  00000+0  54764-4 0  9995
2 11267  82.5203  88.2710 0016872  33.3013 326.9265 14.91919126530084
SL-8 R/B                
1 11574U 79089B   26077.69285099  .00000246  00000+0  82496-4 0  9995
2 11574  74.0669  74.3756 0017043 246.0486 113.8886 14.42356586437406
SL-14 R/B               
1 11672U 80005B   26077.85514001  .00000505  00000+0  48490-4 0  9994
2 11672  82.5128 298.5412 0016880 129.3621 230.9097 14.90940451477851
SL-8 R/B                
1 12139U 81003B   26077.80776864  .00019637  00000+0  49847-3 0  9996
2 12139  82.9361 281.5913 0261451 146.8588 214.9338 15.11354404316058
SL-3 R/B                
1 12465U 81046B   26077.80368301  .00008862  00000+0  20444-3 0  9998
2 12465  81.2280 278.7973 0018823 350.5906   9.4981 15.42216530439831
SL-3 R/B                
1 12904U 81103B   26077.84825223  .00004270  00000+0  18846-3 0  9997
2 12904  81.1602 202.6886 0012437 253.8702 106.1161 15.21484888974625
SL-3 R/B                
1 13068U 82013B   26077.85257185  .00003373  00000+0  14511-3 0  9995
2 13068  81.1755 150.0320 0023138 146.9922 213.2760 15.22102884405742
SL-3 R/B                
1 13154U 82039B   26077.80077453  .00002310  00000+0  13891-3 0  9992
2 13154  81.1579 205.4571 0029268 294.5834  65.2342 15.10132730383013
